CELESTIS-17 & SHERPA-FX1
1 47486U 21006CB  26068.64311433  .00007207  00000+0  24301-3 0  9993
2 47486  97.2397 112.1052 0006630 178.1385 181.9882 15.30994801284065
STARLINK-36110          
1 66945U 25286W   26068.24281598  .00011206  00000+0  39007-3 0  9995
2 66945  53.1609   0.8560 0001106  73.5701 286.5422 15.30184781 15346
